{
  "type": "FeatureCollection",
  "features": [
    {
      "type": "Feature",
      "properties": {
        "norad_id": 66815,
        "name": "STARLINK-35985",
        "group": "last-30-days",
        "lat": -5.46287117000311,
        "lon": 42.26037581252187,
        "alt_km": 357.5030252407123,
        "timestamp": "2025-12-18T13:51:48.379954+00:00",
        "meta_object_name": "STARLINK-35985",
        "meta_object_id": "2025-278AA",
        "meta_epoch": "2025-12-18T06:00:02.999808",
        "meta_mean_motion": 15.72022932,
        "meta_eccentricity": 0.00015752,
        "meta_inclination": 42.9992,
        "meta_ra_of_asc_node": 218.3466,
        "meta_arg_of_pericenter": 275.2499,
        "meta_mean_anomaly": 217.2593,
        "meta_ephemeris_type": 0,
        "meta_classification_type": "U",
        "meta_norad_cat_id": 66815,
        "meta_element_set_no": 999,
        "meta_rev_at_epoch": 393,
        "meta_bstar": -0.016414709,
        "meta_mean_motion_dot": -0.0195939,
        "meta_mean_motion_ddot": 0,
        "tle_line1": "1 66815U 25278AA  25352.25003472 -.01959390  00000+0 -16415-1 0  9995",
        "tle_line2": "2 66815  42.9992 218.3466 0001575 275.2499 217.2593 15.72022932  3936"
      },
      "geometry": {
        "type": "Point",
        "coordinates": [
          42.26037581252187,
          -5.46287117000311
        ]
      }
    },
    {
      "type": "Feature",
      "properties": {
        "norad_id": 66816,
        "name": "STARLINK-36098",
        "group": "last-30-days",
        "lat": -0.24276170923391693,
        "lon": 36.650653574068784,
        "alt_km": 357.01418623592144,
        "timestamp": "2025-12-18T13:51:48.379969+00:00",
        "meta_object_name": "STARLINK-36098",
        "meta_object_id": "2025-278AB",
        "meta_epoch": "2025-12-18T06:00:02.999808",
        "meta_mean_motion": 15.72020878,
        "meta_eccentricity": 0.00016135,
        "meta_inclination": 42.9991,
        "meta_ra_of_asc_node": 218.3672,
        "meta_arg_of_pericenter": 275.2205,
        "meta_mean_anomaly": 209.6165,
        "meta_ephemeris_type": 0,
        "meta_classification_type": "U",
        "meta_norad_cat_id": 66816,
        "meta_element_set_no": 999,
        "meta_rev_at_epoch": 368,
        "meta_bstar": -0.016345904,
        "meta_mean_motion_dot": -0.01952004,
        "meta_mean_motion_ddot": 0,
        "tle_line1": "1 66816U 25278AB  25352.25003472 -.01952004  00000+0 -16346-1 0  9994",
        "tle_line2": "2 66816  42.9991 218.3672 0001613 275.2205 209.6165 15.72020878  3682"
      },
      "geometry": {
        "type": "Point",
        "coordinates": [
          36.650653574068784,
          -0.24276170923391693
        ]
      }
    },
    {
      "type": "Feature",
      "properties": {
        "norad_id": 66817,
        "name": "STARLINK-35995",
        "group": "last-30-days",
        "lat": -2.855343025508134,
        "lon": 39.44890173645516,
        "alt_km": 357.21794108295217,
        "timestamp": "2025-12-18T13:51:48.379979+00:00",
        "meta_object_name": "STARLINK-35995",
        "meta_object_id": "2025-278AC",
        "meta_epoch": "2025-12-18T06:00:02.999808",
        "meta_mean_motion": 15.72029592,
        "meta_eccentricity": 0.00015963,
        "meta_inclination": 42.9994,
        "meta_ra_of_asc_node": 218.3577,
        "meta_arg_of_pericenter": 273.5689,
        "meta_mean_anomaly": 215.0972,
        "meta_ephemeris_type": 0,
        "meta_classification_type": "U",
        "meta_norad_cat_id": 66817,
        "meta_element_set_no": 999,
        "meta_rev_at_epoch": 384,
        "meta_bstar": -0.016444611,
        "meta_mean_motion_dot": -0.01963059,
        "meta_mean_motion_ddot": 0,
        "tle_line1": "1 66817U 25278AC  25352.25003472 -.01963059  00000+0 -16445-1 0  9997",
        "tle_line2": "2 66817  42.9994 218.3577 0001596 273.5689 215.0972 15.72029592  3844"
      },
      "geometry": {
        "type": "Point",
        "coordinates": [
          39.44890173645516,
          -2.855343025508134
        ]
      }
    },
    {
      "type": "Feature",
      "properties": {
        "norad_id": 66818,
        "name": "STARLINK-35994",
        "group": "last-30-days",
        "lat": -1.5518279112120035,
        "lon": 38.0517576277872,
        "alt_km": 357.17913211166706,
        "timestamp": "2025-12-18T13:51:48.380214+00:00",
        "meta_object_name": "STARLINK-35994",
        "meta_object_id": "2025-278AD",
        "meta_epoch": "2025-12-18T06:00:02.999808",
        "meta_mean_motion": 15.7202501,
        "meta_eccentricity": 0.00014647,
        "meta_inclination": 42.9991,
        "meta_ra_of_asc_node": 218.3628,
        "meta_arg_of_pericenter": 277.2308,
        "meta_mean_anomaly": 209.5231,
        "meta_ephemeris_type": 0,
        "meta_classification_type": "U",
        "meta_norad_cat_id": 66818,
        "meta_element_set_no": 999,
        "meta_rev_at_epoch": 384,
        "meta_bstar": -0.016405745,
        "meta_mean_motion_dot": -0.0195851,
        "meta_mean_motion_ddot": 0,
        "tle_line1": "1 66818U 25278AD  25352.25003472 -.01958510  00000+0 -16406-1 0  9991",
        "tle_line2": "2 66818  42.9991 218.3628 0001464 277.2308 209.5231 15.72025010  3849"
      },
      "geometry": {
        "type": "Point",
        "coordinates": [
          38.0517576277872,
          -1.5518279112120035
        ]
      }
    },
    {
      "type": "Feature",
      "properties": {
        "norad_id": 66819,
        "name": "STARLINK-35989",
        "group": "last-30-days",
        "lat": -4.159286610730297,
        "lon": 40.85123046544348,
        "alt_km": 357.336672501403,
        "timestamp": "2025-12-18T13:51:48.380226+00:00",
        "meta_object_name": "STARLINK-35989",
        "meta_object_id": "2025-278AE",
        "meta_epoch": "2025-12-18T06:00:02.999808",
        "meta_mean_motion": 15.72023376,
        "meta_eccentricity": 0.00015919,
        "meta_inclination": 42.9989,
        "meta_ra_of_asc_node": 218.3522,
        "meta_arg_of_pericenter": 273.7014,
        "meta_mean_anomaly": 216.8846,
        "meta_ephemeris_type": 0,
        "meta_classification_type": "U",
        "meta_norad_cat_id": 66819,
        "meta_element_set_no": 999,
        "meta_rev_at_epoch": 384,
        "meta_bstar": -0.016363062,
        "meta_mean_motion_dot": -0.01953985,
        "meta_mean_motion_ddot": 0,
        "tle_line1": "1 66819U 25278AE  25352.25003472 -.01953985  00000+0 -16363-1 0  9995",
        "tle_line2": "2 66819  42.9989 218.3522 0001591 273.7014 216.8846 15.72023376  3842"
      },
      "geometry": {
        "type": "Point",
        "coordinates": [
          40.85123046544348,
          -4.159286610730297
        ]
      }
    },
    {
      "type": "Feature",
      "properties": {
        "norad_id": 66820,
        "name": "KOMPSAT-7",
        "group": "last-30-days",
        "lat": 15.377630383345847,
        "lon": 120.45146947747497,
        "alt_km": 565.5722119469774,
        "timestamp": "2025-12-18T13:51:48.380240+00:00",
        "meta_object_name": "KOMPSAT-7",
        "meta_object_id": "2025-279A",
        "meta_epoch": "2025-12-15T00:17:19.244256",
        "meta_mean_motion": 15.0015594,
        "meta_eccentricity": 0.00093948,
        "meta_inclination": 97.641,
        "meta_ra_of_asc_node": 294.8339,
        "meta_arg_of_pericenter": 252.0315,
        "meta_mean_anomaly": 107.9885,
        "meta_ephemeris_type": 0,
        "meta_classification_type": "U",
        "meta_norad_cat_id": 66820,
        "meta_element_set_no": 999,
        "meta_rev_at_epoch": 199,
        "meta_bstar": 0.00025788518,
        "meta_mean_motion_dot": 3.163e-05,
        "meta_mean_motion_ddot": 0,
        "tle_line1": "1 66820U 25279A   25349.01202829  .00003163  00000+0  25789-3 0  9990",
        "tle_line2": "2 66820  97.6410 294.8339 0009394 252.0315 107.9885 15.00155940  1999"
      },
      "geometry": {
        "type": "Point",
        "coordinates": [
          120.45146947747497,
          15.377630383345847
        ]
      }
    },
    {
      "type": "Feature",
      "properties": {
        "norad_id": 66821,
        "name": "STARLINK-35966",
        "group": "last-30-days",
        "lat": -34.50897321517366,
        "lon": 16.94046906779835,
        "alt_km": 399.9994828822946,
        "timestamp": "2025-12-18T13:51:48.380250+00:00",
        "meta_object_name": "STARLINK-35966",
        "meta_object_id": "2025-280A",
        "meta_epoch": "2025-12-18T06:00:02.999808",
        "meta_mean_motion": 15.58738783,
        "meta_eccentricity": 0.00032882,
        "meta_inclination": 69.9991,
        "meta_ra_of_asc_node": 183.3421,
        "meta_arg_of_pericenter": 275.0486,
        "meta_mean_anomaly": 265.0167,
        "meta_ephemeris_type": 0,
        "meta_classification_type": "U",
        "meta_norad_cat_id": 66821,
        "meta_element_set_no": 999,
        "meta_rev_at_epoch": 378,
        "meta_bstar": -0.029476265,
        "meta_mean_motion_dot": -0.02002322,
        "meta_mean_motion_ddot": 0,
        "tle_line1": "1 66821U 25280A   25352.25003472 -.02002322  00000+0 -29476-1 0  9991",
        "tle_line2": "2 66821  69.9991 183.3421 0003288 275.0486 265.0167 15.58738783  3783"
      },
      "geometry": {
        "type": "Point",
        "coordinates": [
          16.94046906779835,
          -34.50897321517366
        ]
      }
    }
  ]
}